sat04989
1 04989U 70025HK  20046.49897799  .00000460  00000-0  59153-3 0  9994
2 04989  99.7505 239.8736 0129555 345.3592  66.7406 13.64897388445158
